{
  "type": "FeatureCollection",
  "features": [
    {
      "type": "Feature",
      "properties": {
        "norad_id": 32275,
        "name": "COSMOS 2433 (720)",
        "group": "glo-ops",
        "lat": 48.63619298079985,
        "lon": 111.59694757101751,
        "alt_km": 19132.93460586982,
        "timestamp": "2025-12-03T20:47:58.484405+00:00",
        "meta_object_name": "COSMOS 2433 (720)",
        "meta_object_id": "2007-052A",
        "meta_epoch": "2025-12-02T18:22:37.547904",
        "meta_mean_motion": 2.13103908,
        "meta_eccentricity": 0.0005557,
        "meta_inclination": 65.6886,
        "meta_ra_of_asc_node": 322.5409,
        "meta_arg_of_pericenter": 252.4107,
        "meta_mean_anomaly": 107.5368,
        "meta_ephemeris_type": 0,
        "meta_classification_type": "U",
        "meta_norad_cat_id": 32275,
        "meta_element_set_no": 999,
        "meta_rev_at_epoch": 14087,
        "meta_bstar": 0,
        "meta_mean_motion_dot": -3.5e-07,
        "meta_mean_motion_ddot": 0,
        "tle_line1": "1 32275U 07052A   25336.76571236 -.00000035  00000+0  00000+0 0  9996",
        "tle_line2": "2 32275  65.6886 322.5409 0005557 252.4107 107.5368  2.13103908140875"
      },
      "geometry": {
        "type": "Point",
        "coordinates": [
          111.59694757101751,
          48.63619298079985
        ]
      }
    },
    {
      "type": "Feature",
      "properties": {
        "norad_id": 32276,
        "name": "COSMOS 2432 (719)",
        "group": "glo-ops",
        "lat": 58.402466242841456,
        "lon": 9.886036366759217,
        "alt_km": 19136.87051050921,
        "timestamp": "2025-12-03T20:47:58.484434+00:00",
        "meta_object_name": "COSMOS 2432 (719)",
        "meta_object_id": "2007-052B",
        "meta_epoch": "2025-12-01T01:47:57.960960",
        "meta_mean_motion": 2.13103067,
        "meta_eccentricity": 0.00112256,
        "meta_inclination": 65.7054,
        "meta_ra_of_asc_node": 322.7218,
        "meta_arg_of_pericenter": 311.1678,
        "meta_mean_anomaly": 136.2023,
        "meta_ephemeris_type": 0,
        "meta_classification_type": "U",
        "meta_norad_cat_id": 32276,
        "meta_element_set_no": 999,
        "meta_rev_at_epoch": 14086,
        "meta_bstar": 0,
        "meta_mean_motion_dot": -2.4e-07,
        "meta_mean_motion_ddot": 0,
        "tle_line1": "1 32276U 07052B   25335.07497640 -.00000024  00000+0  00000+0 0  9994",
        "tle_line2": "2 32276  65.7054 322.7218 0011225 311.1678 136.2023  2.13103067140861"
      },
      "geometry": {
        "type": "Point",
        "coordinates": [
          9.886036366759217,
          58.402466242841456
        ]
      }
    },
    {
      "type": "Feature",
      "properties": {
        "norad_id": 32393,
        "name": "COSMOS 2434 (721)",
        "group": "glo-ops",
        "lat": 13.558914745787662,
        "lon": -154.83158717196926,
        "alt_km": 19122.437122750547,
        "timestamp": "2025-12-03T20:47:58.484452+00:00",
        "meta_object_name": "COSMOS 2434 (721)",
        "meta_object_id": "2007-065A",
        "meta_epoch": "2025-12-01T06:30:38.524608",
        "meta_mean_motion": 2.13101181,
        "meta_eccentricity": 0.00043375,
        "meta_inclination": 64.3147,
        "meta_ra_of_asc_node": 198.5905,
        "meta_arg_of_pericenter": 70.7489,
        "meta_mean_anomaly": 113.3938,
        "meta_ephemeris_type": 0,
        "meta_classification_type": "U",
        "meta_norad_cat_id": 32393,
        "meta_element_set_no": 999,
        "meta_rev_at_epoch": 13955,
        "meta_bstar": 0,
        "meta_mean_motion_dot": 1.02e-06,
        "meta_mean_motion_ddot": 0,
        "tle_line1": "1 32393U 07065A   25335.27127922  .00000102  00000+0  00000+0 0  9999",
        "tle_line2": "2 32393  64.3147 198.5905 0004337  70.7489 113.3938  2.13101181139555"
      },
      "geometry": {
        "type": "Point",
        "coordinates": [
          -154.83158717196926,
          13.558914745787662
        ]
      }
    },
    {
      "type": "Feature",
      "properties": {
        "norad_id": 32395,
        "name": "COSMOS 2436 (723)",
        "group": "glo-ops",
        "lat": 28.15868519267678,
        "lon": 3.658009719321544,
        "alt_km": 19161.283908478214,
        "timestamp": "2025-12-03T20:47:58.484466+00:00",
        "meta_object_name": "COSMOS 2436 (723)",
        "meta_object_id": "2007-065C",
        "meta_epoch": "2025-12-01T01:03:25.836192",
        "meta_mean_motion": 2.13099978,
        "meta_eccentricity": 0.00177119,
        "meta_inclination": 64.3233,
        "meta_ra_of_asc_node": 198.6683,
        "meta_arg_of_pericenter": 8.6583,
        "meta_mean_anomaly": 134.2889,
        "meta_ephemeris_type": 0,
        "meta_classification_type": "U",
        "meta_norad_cat_id": 32395,
        "meta_element_set_no": 999,
        "meta_rev_at_epoch": 13950,
        "meta_bstar": 0,
        "meta_mean_motion_dot": 1e-06,
        "meta_mean_motion_ddot": 0,
        "tle_line1": "1 32395U 07065C   25335.04404903  .00000100  00000+0  00000+0 0  9991",
        "tle_line2": "2 32395  64.3233 198.6683 0017711   8.6583 134.2889  2.13099978139504"
      },
      "geometry": {
        "type": "Point",
        "coordinates": [
          3.658009719321544,
          28.15868519267678
        ]
      }
    },
    {
      "type": "Feature",
      "properties": {
        "norad_id": 36111,
        "name": "COSMOS 2456 (730)",
        "group": "glo-ops",
        "lat": 6.989625212673713,
        "lon": -105.64732906267686,
        "alt_km": 19133.55222495868,
        "timestamp": "2025-12-03T20:47:58.484479+00:00",
        "meta_object_name": "COSMOS 2456 (730)",
        "meta_object_id": "2009-070A",
        "meta_epoch": "2025-12-01T00:19:15.904128",
        "meta_mean_motion": 2.13103433,
        "meta_eccentricity": 0.00027486,
        "meta_inclination": 64.8936,
        "meta_ra_of_asc_node": 77.7389,
        "meta_arg_of_pericenter": 298.5027,
        "meta_mean_anomaly": 204.7984,
        "meta_ephemeris_type": 0,
        "meta_classification_type": "U",
        "meta_norad_cat_id": 36111,
        "meta_element_set_no": 999,
        "meta_rev_at_epoch": 12420,
        "meta_bstar": 0,
        "meta_mean_motion_dot": -1.4e-07,
        "meta_mean_motion_ddot": 0,
        "tle_line1": "1 36111U 09070A   25335.01337852 -.00000014  00000+0  00000+0 0  9999",
        "tle_line2": "2 36111  64.8936  77.7389 0002748 298.5027 204.7984  2.13103433124208"
      },
      "geometry": {
        "type": "Point",
        "coordinates": [
          -105.64732906267686,
          6.989625212673713
        ]
      }
    },
    {
      "type": "Feature",
      "properties": {
        "norad_id": 36112,
        "name": "COSMOS 2457 (733)",
        "group": "glo-ops",
        "lat": -50.53396497722,
        "lon": 42.81665221092744,
        "alt_km": 19146.102445588982,
        "timestamp": "2025-12-03T20:47:58.484492+00:00",
        "meta_object_name": "COSMOS 2457 (733)",
        "meta_object_id": "2009-070B",
        "meta_epoch": "2025-12-03T00:06:14.592384",
        "meta_mean_motion": 2.13100787,
        "meta_eccentricity": 0.00049101,
        "meta_inclination": 64.8799,
        "meta_ra_of_asc_node": 77.5186,
        "meta_arg_of_pericenter": 156.2376,
        "meta_mean_anomaly": 203.7006,
        "meta_ephemeris_type": 0,
        "meta_classification_type": "U",
        "meta_norad_cat_id": 36112,
        "meta_element_set_no": 999,
        "meta_rev_at_epoch": 12424,
        "meta_bstar": 0,
        "meta_mean_motion_dot": -2.5e-07,
        "meta_mean_motion_ddot": 0,
        "tle_line1": "1 36112U 09070B   25337.00433556 -.00000025  00000+0  00000+0 0  9991",
        "tle_line2": "2 36112  64.8799  77.5186 0004910 156.2376 203.7006  2.13100787124246"
      },
      "geometry": {
        "type": "Point",
        "coordinates": [
          42.81665221092744,
          -50.53396497722
        ]
      }
    },
    {
      "type": "Feature",
      "properties": {
        "norad_id": 36402,
        "name": "COSMOS 2460 (732)",
        "group": "glo-ops",
        "lat": -51.38790528772872,
        "lon": -73.69873635408226,
        "alt_km": 19129.31218713655,
        "timestamp": "2025-12-03T20:47:58.484503+00:00",
        "meta_object_name": "COSMOS 2460 (732)",
        "meta_object_id": "2010-007C",
        "meta_epoch": "2025-12-01T05:49:09.827040",
        "meta_mean_motion": 2.13106053,
        "meta_eccentricity": 0.00028009,
        "meta_inclination": 65.536,
        "meta_ra_of_asc_node": 321.162,
        "meta_arg_of_pericenter": 269.9918,
        "meta_mean_anomaly": 177.6167,
        "meta_ephemeris_type": 0,
        "meta_classification_type": "U",
        "meta_norad_cat_id": 36402,
        "meta_element_set_no": 999,
        "meta_rev_at_epoch": 12251,
        "meta_bstar": 0,
        "meta_mean_motion_dot": -2.6e-07,
        "meta_mean_motion_ddot": 0,
        "tle_line1": "1 36402U 10007C   25335.24247485 -.00000026  00000+0  00000+0 0  9994",
        "tle_line2": "2 36402  65.5360 321.1620 0002800 269.9918 177.6167  2.13106053122518"
      },
      "geometry": {
        "type": "Point",
        "coordinates": [
          -73.69873635408226,
          -51.38790528772872
        ]
      }
    }
  ]
}